     2.10           N: GPS NAV DATA                         RINEX VERSION / TYPE
teqc  2014Jan16     CORS User           20140325 23:45:11UTCPGM / RUN BY / DATE
Solaris x86 5.10|AMD64|cc SC5.8 -xarch=amd64|=+|=+          COMMENT
     2              NAVIGATION DATA                         COMMENT
CCRINEXN V1.6.0 UX  CDDIS               22-MAR-14 15:33     COMMENT
IGS BROADCAST EPHEMERIS FILE                                COMMENT
    2.6080D-08  7.4510D-09 -1.1920D-07  0.0000D+00          ION ALPHA
    1.2900D+05  0.0000D+00 -2.6210D+05  1.3110D+05          ION BETA
    1.862645149230D-09 1.243449787580D-14   589824     1784 DELTA-UTC: A0,A1,T,W
                                                            END OF HEADER
24 14  3 21 12  0  0.0-2.530822530390D-05-6.821210263300D-13 0.000000000000D+00
    3.300000000000D+01-3.746875000000D+01 4.736268713170D-09-1.040429782510D+00
   -1.929700374600D-06 2.000036882240D-03 3.078952431680D-06 5.153743818280D+03
    4.752000000000D+05 2.607703208920D-08 2.682734851410D+00-8.009374141690D-08
    9.573225021530D-01 3.200937500000D+02 2.844869362860D-01-8.474638717010D-09
   -2.746542975970D-10 1.000000000000D+00 1.784000000000D+03 0.000000000000D+00
    2.000000000000D+00 0.000000000000D+00 3.259629011150D-09 3.300000000000D+01
    4.680180000000D+05 4.000000000000D+00
25 14  3 21 12  0  0.0 1.929001882670D-05 1.364242052660D-12 0.000000000000D+00
    8.400000000000D+01-8.409375000000D+01 3.842660062220D-09-3.121624115850D+00
   -4.252418875690D-06 3.349057398740D-03 1.046806573870D-05 5.153643440250D+03
    4.752000000000D+05 5.587935447690D-08-2.547026313660D+00 7.450580596920D-09
    9.759156013850D-01 1.859062500000D+02 6.213804009310D-01-7.749965674320D-09
    6.143113028170D-11 1.000000000000D+00 1.784000000000D+03 0.000000000000D+00
    2.000000000000D+00 0.000000000000D+00 5.587935447690D-09 8.400000000000D+01
    4.680180000000D+05 4.000000000000D+00
26 14  3 21 12  0  0.0 1.323656179010D-04-1.114131009670D-11 0.000000000000D+00
    1.700000000000D+01 8.796875000000D+01 4.482329564160D-09-3.934336611430D-01
    4.852190613750D-06 2.149616077080D-02 5.949288606640D-06 5.153687171940D+03
    4.752000000000D+05-1.285225152970D-07 1.742646378570D+00 2.700835466380D-07
    9.753449389860D-01 2.750937500000D+02 1.270878976800D+00-8.530712481270D-09
    1.514348792990D-10 1.000000000000D+00 1.784000000000D+03 0.000000000000D+00
    2.000000000000D+00 0.000000000000D+00-6.053596735000D-09 1.700000000000D+01
    4.706280000000D+05 4.000000000000D+00
27 14  3 21 12  0  0.0-2.044672146440D-05-1.136868377220D-13 0.000000000000D+00
    8.000000000000D+01 1.375000000000D+00 4.612692137140D-09 9.936531290700D-01
    3.539025783540D-08 9.616300230850D-04 7.981434464450D-06 5.153670619960D+03
    4.752000000000D+05 4.656612873080D-08-1.499078593680D+00-3.725290298460D-08
    9.624142514340D-01 2.280625000000D+02 2.573649895420D-02-8.075693527910D-09
    4.789485215570D-10 1.000000000000D+00 1.784000000000D+03 0.000000000000D+00
    2.000000000000D+00 0.000000000000D+00 1.862645149230D-09 8.000000000000D+01
    4.680180000000D+05 4.000000000000D+00
28 14  3 21 12  0  0.0 3.412291407580D-04 2.955857780760D-12 0.000000000000D+00
    9.900000000000D+01-6.418750000000D+01 3.619079320610D-09 1.661395171140D+00
   -3.544613718990D-06 1.918574213050D-02 9.967014193540D-06 5.153671621320D+03
    4.752000000000D+05-2.607703208920D-08-2.481017717830D+00-4.861503839490D-07
    9.862770332090D-01 2.013750000000D+02-1.719091602490D+00-7.628889202430D-09
    1.246480492340D-10 1.000000000000D+00 1.784000000000D+03 0.000000000000D+00
    2.000000000000D+00 0.000000000000D+00-1.071020960810D-08 9.900000000000D+01
    4.680000000000D+05
29 14  3 21 12  0  0.0 5.196984857320D-04 2.842170943040D-12 0.000000000000D+00
    2.000000000000D+01 1.159375000000D+01 4.450542525820D-09-2.596957853810D+00
    6.873160600660D-07 1.679469016380D-03 8.020550012590D-06 5.153733289720D+03
    4.752000000000D+05 7.450580596920D-09-1.444930192170D+00 6.519258022310D-08
    9.684149512160D-01 2.251875000000D+02-9.674333712200D-01-7.984261147950D-09
    6.075253058680D-10 1.000000000000D+00 1.784000000000D+03 0.000000000000D+00
    2.000000000000D+00 0.000000000000D+00-9.313225746160D-09 2.000000000000D+01
    4.680180000000D+05 4.000000000000D+00
31 14  3 21 12  0  0.0 3.339159302410D-04 1.136868377220D-13 0.000000000000D+00
    8.400000000000D+01-2.868750000000D+01 4.301607750660D-09-2.067286883180D+00
   -1.445412635800D-06 8.134180912750D-03 3.673136234280D-06 5.153794372560D+03
    4.752000000000D+05-1.844018697740D-07 2.722105088550D+00 1.005828380590D-07
    9.789107301210D-01 3.214062500000D+02-6.374951677180D-01-8.252486606340D-09
   -2.132231673150D-10 1.000000000000D+00 1.784000000000D+03 0.000000000000D+00
    2.000000000000D+00 0.000000000000D+00-1.303851604460D-08 8.400000000000D+01
    4.680180000000D+05 4.000000000000D+00
32 14  3 21 12  0  0.0-4.650396294890D-04 7.275957614180D-12 0.000000000000D+00
    1.500000000000D+01 2.187500000000D+01 4.823415200320D-09-1.349386835400D+00
    1.188367605210D-06 1.146575470920D-02 1.103617250920D-05 5.153491210940D+03
    4.752000000000D+05-2.793967723850D-08 6.832363092260D-01-1.769512891770D-07
    9.482797827220D-01 1.612812500000D+02-1.704403444160D-01-8.149625178890D-09
   -1.032185851830D-10 1.000000000000D+00 1.784000000000D+03 0.000000000000D+00
    2.000000000000D+00 0.000000000000D+00-3.259629011150D-09 1.500000000000D+01
    4.680000000000D+05
22 14  3 21 13 59 28.0 2.210703678430D-04 2.728484105320D-12 0.000000000000D+00
    2.900000000000D+01 2.109375000000D+01 5.273433945400D-09 2.925200131490D+00
    1.002103090290D-06 6.925972877070D-03 1.131556928160D-05 5.153735013960D+03
    4.823680000000D+05 5.587935447690D-08 5.925536689360D-01-1.508742570880D-07
    9.241746949000D-01 1.415312500000D+02-2.064203180610D+00-8.184626636840D-09
   -3.353711124100D-10 1.000000000000D+00 1.784000000000D+03 0.000000000000D+00
    2.000000000000D+00 0.000000000000D+00-1.722946763040D-08 2.900000000000D+01
    4.780260000000D+05 4.000000000000D+00
 1 14  3 21 13 59 44.0 5.086418241260D-06 1.818989403550D-12 0.000000000000D+00
    1.200000000000D+01-2.693750000000D+01 4.925205154560D-09-2.905752107320D-01
   -1.361593604090D-06 2.818917855620D-03 6.362795829770D-06 5.153675989150D+03
    4.823840000000D+05 4.656612873080D-08-4.443455802280D-01 1.862645149230D-09
    9.609312094530D-01 2.578750000000D+02 3.397997576810D-01-8.247129240320D-09
   -7.071723137080D-11 1.000000000000D+00 1.784000000000D+03 0.000000000000D+00
    2.000000000000D+00 0.000000000000D+00 6.519258022310D-09 1.200000000000D+01
    4.784280000000D+05 4.000000000000D+00
13 14  3 21 13 59 44.0 1.794518902900D-05-3.865352482530D-12 0.000000000000D+00
    1.100000000000D+01 8.175000000000D+01 4.260891768960D-09 1.454213165180D+00
    4.105269908900D-06 5.313003319320D-03 6.102025508880D-06 5.153617168430D+03
    4.823840000000D+05 4.284083843230D-08 1.751088852470D+00-6.332993507380D-08
    9.779451661530D-01 2.645000000000D+02 2.204544054300D+00-8.031405968870D-09
    3.964450849580D-11 1.000000000000D+00 1.784000000000D+03 0.000000000000D+00
    2.000000000000D+00 0.000000000000D+00-1.117587089540D-08 1.100000000000D+01
    4.805400000000D+05
17 14  3 21 13 59 44.0-7.824273779990D-05-3.410605131650D-12 0.000000000000D+00
    1.000000000000D+00 4.781250000000D+00 4.370539193360D-09 1.832731611390D+00
    2.980232238770D-07 9.280005120670D-03 7.970258593560D-06 5.153563776020D+03
    4.823840000000D+05-2.048909664150D-07-1.453994317020D+00-2.142041921620D-07
    9.677025218140D-01 2.278750000000D+02-2.112299131610D+00-8.007119242940D-09
    5.246647115340D-10 1.000000000000D+00 1.784000000000D+03 0.000000000000D+00
    2.000000000000D+00 0.000000000000D+00-1.024454832080D-08 1.000000000000D+00
    4.752900000000D+05
20 14  3 21 13 59 44.0 1.720935106280D-04 3.524291969370D-12 0.000000000000D+00
    3.500000000000D+01 5.593750000000D+00 5.315935715770D-09-2.268060661350D+00
    3.352761268620D-07 5.890713771800D-03 1.069158315660D-05 5.153554246900D+03
    4.823840000000D+05 7.264316082000D-08 5.374101583650D-01-1.862645149230D-08
    9.273920218740D-01 1.560312500000D+02 1.312818912930D+00-8.249629344460D-09
   -2.596536727610D-10 1.000000000000D+00 1.784000000000D+03 0.000000000000D+00
    2.000000000000D+00 0.000000000000D+00-7.916241884230D-09 3.500000000000D+01
    4.752000000000D+05
31 14  3 21 13 59 44.0 3.339182585480D-04 1.136868377220D-13 0.000000000000D+00
    9.000000000000D+00-3.484375000000D+01 4.351966786940D-09-1.019628464030D+00
   -1.840293407440D-06 8.134125499050D-03 3.498047590260D-06 5.153792598720D+03
    4.823840000000D+05-1.341104507450D-07 2.722045006500D+00-4.656612873080D-08
    9.789092042980D-01 3.239687500000D+02-6.373805363830D-01-8.333561396510D-09
   -1.696499191130D-10 1.000000000000D+00 1.784000000000D+03 0.000000000000D+00
    2.000000000000D+00 0.000000000000D+00-1.303851604460D-08 9.000000000000D+00
    4.769100000000D+05
 1 14  3 21 14  0  0.0 5.085486918690D-06 1.818989403550D-12 0.000000000000D+00
    1.150000000000D+02-2.693750000000D+01 4.925205132620D-09-2.882414701860D-01
   -1.361593604090D-06 2.818911452780D-03 6.362795829770D-06 5.153675987240D+03
    4.824000000000D+05 4.656612873080D-08-4.443456914100D-01 1.862645149230D-09
    9.609312123790D-01 2.578750000000D+02 3.397997372000D-01-8.247129201780D-09
   -7.036007193540D-11 1.000000000000D+00 1.784000000000D+03 0.000000000000D+00
    2.800000000000D+00 0.000000000000D+00 6.519258022310D-09 1.150000000000D+02
    4.752000000000D+05
